[Satellite]
VERSION=1.1
NAME=CZ-6A DEB
NICKNAME=CZ-6A DEB
TLE1=1 54447U 22151FX  22342.46964613  .00000296  00000+0  27380-3 0  9996
TLE2=2 54447  98.8427 346.0806 0172613  19.0122 341.7373 13.83211072  3410
STATUS=0
